SL-3 R/B                
1 13154U 82039B   25317.20575797  .00007357  00000+0  45481-3 0  9992
2 13154  81.1796 350.0578 0032126 349.3547  10.6994 15.09289214364064
SL-3 R/B                
1 13403U 82079B   25317.18819831  .00014067  00000+0  58912-3 0  9999
2 13403  81.1470 330.4875 0025297 196.3699 163.6720 15.23137982359959
SL-14 R/B               
1 13553U 82092B   25317.27497933  .00001392  00000+0  15413-3 0  9991
2 13553  82.5681 250.2650 0019669 331.8318 142.4762 14.86507677311638
SL-3 R/B                
1 13819U 83010B   25317.26396606  .00024747  00000+0  56768-3 0  9998
2 13819  81.1029 144.5694 0018283  91.5448 268.7889 15.42411475339974
SL-3 R/B                
1 14208U 83075B   25317.20542873  .00021930  00000+0  63637-3 0  9999
2 14208  97.6108 312.7165 0021156 287.7581  72.1353 15.35308711312265
COSMOS 1536             
1 14699U 84013A   25317.22661606  .00018282  00000+0  79560-3 0  9992
2 14699  82.5469 223.4181 0014511 339.9742  20.0922 15.22030509254895
SL-14 R/B               
1 14820U 84027B   25317.19393673  .00001055  00000+0  11815-3 0  9994
2 14820  82.5428 354.2651 0018041   4.4875 355.6500 14.85830309230330
SL-8 R/B                
1 15483U 85006B   25316.75137657  .00000534  00000+0  18595-3 0  9990
2 15483  74.0433 116.3064 0017600  58.1986 313.1956 14.37693162137221
SL-12 R/B(2)            
1 15772U 85042D   25317.27339080  .00000188  00000+0  10621-3 0  9990
2 15772  71.1084 333.6729 0037278 304.6335 132.3953 14.21937763 97846
SL-14 R/B               
1 15945U 85069B   25317.21397264  .00001182  00000+0  13135-3 0  9991
2 15945  82.5246 134.4620 0017915 214.6159 145.3892 14.86272592155531
SL-16 R/B               
1 16182U 85097B   25317.26228413  .00000038  00000+0  43135-4 0  9993
2 16182  71.0045  25.6613 0005284  66.7480 350.6365 14.16576202 70740
SL-14 R/B               
1 16496U 86006B   25317.21922472  .00001463  00000+0  15397-3 0  9994
2 16496  82.5289   9.3265 0075423 299.3739  59.9960 14.86612840131902
