CCSDS_OMM_VERS = 2.0
CREATION_DATE  = 
ORIGINATOR     = 

OBJECT_NAME    = SL-3 R/B
OBJECT_ID      = 1982-039B
CENTER_NAME    = EARTH
REF_FRAME      = TEME
TIME_SYSTEM    = UTC
MEAN_ELEMENT_THEORY = SGP/SGP4

EPOCH          = 2025-11-13T04:56:17.488608
MEAN_MOTION    = 15.09289214
ECCENTRICITY   = .00321266
INCLINATION    = 81.1796
RA_OF_ASC_NODE = 350.0578
ARG_OF_PERICENTER = 349.3547
MEAN_ANOMALY   = 10.6994

EPHEMERIS_TYPE = 0
CLASSIFICATION_TYPE = U
NORAD_CAT_ID   = 13154
ELEMENT_SET_NO = 999
REV_AT_EPOCH   = 36406
BSTAR          = .4548094E-3
MEAN_MOTION_DOT = .7357E-4
MEAN_MOTION_DDOT = 0

CCSDS_OMM_VERS = 2.0
CREATION_DATE  = 
ORIGINATOR     = 

OBJECT_NAME    = SL-3 R/B
OBJECT_ID      = 1982-079B
CENTER_NAME    = EARTH
REF_FRAME      = TEME
TIME_SYSTEM    = UTC
MEAN_ELEMENT_THEORY = SGP/SGP4

EPOCH          = 2025-11-13T04:31:00.333984
MEAN_MOTION    = 15.23137982
ECCENTRICITY   = .00252971
INCLINATION    = 81.1470
RA_OF_ASC_NODE = 330.4875
ARG_OF_PERICENTER = 196.3699
MEAN_ANOMALY   = 163.6720

EPHEMERIS_TYPE = 0
CLASSIFICATION_TYPE = U
NORAD_CAT_ID   = 13403
ELEMENT_SET_NO = 999
REV_AT_EPOCH   = 35995
BSTAR          = .58911639E-3
MEAN_MOTION_DOT = .14067E-3
MEAN_MOTION_DDOT = 0

CCSDS_OMM_VERS = 2.0
CREATION_DATE  = 
ORIGINATOR     = 

OBJECT_NAME    = SL-14 R/B
OBJECT_ID      = 1982-092B
CENTER_NAME    = EARTH
REF_FRAME      = TEME
TIME_SYSTEM    = UTC
MEAN_ELEMENT_THEORY = SGP/SGP4

EPOCH          = 2025-11-13T06:35:58.214112
MEAN_MOTION    = 14.86507677
ECCENTRICITY   = .00196699
INCLINATION    = 82.5681
RA_OF_ASC_NODE = 250.2650
ARG_OF_PERICENTER = 331.8318
MEAN_ANOMALY   = 142.4762

EPHEMERIS_TYPE = 0
CLASSIFICATION_TYPE = U
NORAD_CAT_ID   = 13553
ELEMENT_SET_NO = 999
REV_AT_EPOCH   = 31163
BSTAR          = .15413412E-3
MEAN_MOTION_DOT = .1392E-4
MEAN_MOTION_DDOT = 0

CCSDS_OMM_VERS = 2.0
CREATION_DATE  = 
ORIGINATOR     = 

OBJECT_NAME    = SL-3 R/B
OBJECT_ID      = 1983-010B
CENTER_NAME    = EARTH
REF_FRAME      = TEME
TIME_SYSTEM    = UTC
MEAN_ELEMENT_THEORY = SGP/SGP4

EPOCH          = 2025-11-13T06:20:06.667584
MEAN_MOTION    = 15.42411475
ECCENTRICITY   = .00182832
INCLINATION    = 81.1029
RA_OF_ASC_NODE = 144.5694
ARG_OF_PERICENTER = 91.5448
MEAN_ANOMALY   = 268.7889

EPHEMERIS_TYPE = 0
CLASSIFICATION_TYPE = U
NORAD_CAT_ID   = 13819
ELEMENT_SET_NO = 999
REV_AT_EPOCH   = 33997
BSTAR          = .56768342E-3
MEAN_MOTION_DOT = .24747E-3
MEAN_MOTION_DDOT = 0

CCSDS_OMM_VERS = 2.0
CREATION_DATE  = 
ORIGINATOR     = 

OBJECT_NAME    = SL-3 R/B
OBJECT_ID      = 1983-075B
CENTER_NAME    = EARTH
REF_FRAME      = TEME
TIME_SYSTEM    = UTC
MEAN_ELEMENT_THEORY = SGP/SGP4

EPOCH          = 2025-11-13T04:55:49.042272
MEAN_MOTION    = 15.35308711
ECCENTRICITY   = .00211562
INCLINATION    = 97.6108
RA_OF_ASC_NODE = 312.7165
ARG_OF_PERICENTER = 287.7581
MEAN_ANOMALY   = 72.1353

EPHEMERIS_TYPE = 0
CLASSIFICATION_TYPE = U
NORAD_CAT_ID   = 14208
ELEMENT_SET_NO = 999
REV_AT_EPOCH   = 31226
BSTAR          = .636372E-3
MEAN_MOTION_DOT = .2193E-3
MEAN_MOTION_DDOT = 0

CCSDS_OMM_VERS = 2.0
CREATION_DATE  = 
ORIGINATOR     = 

OBJECT_NAME    = COSMOS 1536
OBJECT_ID      = 1984-013A
CENTER_NAME    = EARTH
REF_FRAME      = TEME
TIME_SYSTEM    = UTC
MEAN_ELEMENT_THEORY = SGP/SGP4

EPOCH          = 2025-11-13T05:26:19.627584
MEAN_MOTION    = 15.22030509
ECCENTRICITY   = .00145111
INCLINATION    = 82.5469
RA_OF_ASC_NODE = 223.4181
ARG_OF_PERICENTER = 339.9742
MEAN_ANOMALY   = 20.0922

EPHEMERIS_TYPE = 0
CLASSIFICATION_TYPE = U
NORAD_CAT_ID   = 14699
ELEMENT_SET_NO = 999
REV_AT_EPOCH   = 25489
BSTAR          = .79560446E-3
MEAN_MOTION_DOT = .18282E-3
MEAN_MOTION_DDOT = 0

CCSDS_OMM_VERS = 2.0
CREATION_DATE  = 
ORIGINATOR     = 

OBJECT_NAME    = SL-14 R/B
OBJECT_ID      = 1984-027B
CENTER_NAME    = EARTH
REF_FRAME      = TEME
TIME_SYSTEM    = UTC
MEAN_ELEMENT_THEORY = SGP/SGP4

EPOCH          = 2025-11-13T04:39:16.133472
MEAN_MOTION    = 14.85830309
ECCENTRICITY   = .00180419
INCLINATION    = 82.5428
RA_OF_ASC_NODE = 354.2651
ARG_OF_PERICENTER = 4.4875
MEAN_ANOMALY   = 355.6500

EPHEMERIS_TYPE = 0
CLASSIFICATION_TYPE = U
NORAD_CAT_ID   = 14820
ELEMENT_SET_NO = 999
REV_AT_EPOCH   = 23033
BSTAR          = .11815341E-3
MEAN_MOTION_DOT = .1055E-4
MEAN_MOTION_DDOT = 0

CCSDS_OMM_VERS = 2.0
CREATION_DATE  = 
ORIGINATOR     = 

OBJECT_NAME    = SL-8 R/B
OBJECT_ID      = 1985-006B
CENTER_NAME    = EARTH
REF_FRAME      = TEME
TIME_SYSTEM    = UTC
MEAN_ELEMENT_THEORY = SGP/SGP4

EPOCH          = 2025-11-12T18:01:58.935648
MEAN_MOTION    = 14.37693162
ECCENTRICITY   = .00176003
INCLINATION    = 74.0433
RA_OF_ASC_NODE = 116.3064
ARG_OF_PERICENTER = 58.1986
MEAN_ANOMALY   = 313.1956

EPHEMERIS_TYPE = 0
CLASSIFICATION_TYPE = U
NORAD_CAT_ID   = 15483
ELEMENT_SET_NO = 999
REV_AT_EPOCH   = 13722
BSTAR          = .18595238E-3
MEAN_MOTION_DOT = .534E-5
MEAN_MOTION_DDOT = 0

CCSDS_OMM_VERS = 2.0
CREATION_DATE  = 
ORIGINATOR     = 

OBJECT_NAME    = SL-12 R/B(2)
OBJECT_ID      = 1985-042D
CENTER_NAME    = EARTH
REF_FRAME      = TEME
TIME_SYSTEM    = UTC
MEAN_ELEMENT_THEORY = SGP/SGP4

EPOCH          = 2025-11-13T06:33:40.965120
MEAN_MOTION    = 14.21937763
ECCENTRICITY   = .00372786
INCLINATION    = 71.1084
RA_OF_ASC_NODE = 333.6729
ARG_OF_PERICENTER = 304.6335
MEAN_ANOMALY   = 132.3953

EPHEMERIS_TYPE = 0
CLASSIFICATION_TYPE = U
NORAD_CAT_ID   = 15772
ELEMENT_SET_NO = 999
REV_AT_EPOCH   = 9784
BSTAR          = .1062109E-3
MEAN_MOTION_DOT = .188E-5
MEAN_MOTION_DDOT = 0

CCSDS_OMM_VERS = 2.0
CREATION_DATE  = 
ORIGINATOR     = 

OBJECT_NAME    = SL-14 R/B
OBJECT_ID      = 1985-069B
CENTER_NAME    = EARTH
REF_FRAME      = TEME
TIME_SYSTEM    = UTC
MEAN_ELEMENT_THEORY = SGP/SGP4

EPOCH          = 2025-11-13T05:08:07.236096
MEAN_MOTION    = 14.86272592
ECCENTRICITY   = .00179155
INCLINATION    = 82.5246
RA_OF_ASC_NODE = 134.4620
ARG_OF_PERICENTER = 214.6159
MEAN_ANOMALY   = 145.3892

EPHEMERIS_TYPE = 0
CLASSIFICATION_TYPE = U
NORAD_CAT_ID   = 15945
ELEMENT_SET_NO = 999
REV_AT_EPOCH   = 15553
BSTAR          = .13134544E-3
MEAN_MOTION_DOT = .1182E-4
MEAN_MOTION_DDOT = 0

CCSDS_OMM_VERS = 2.0
CREATION_DATE  = 
ORIGINATOR     = 

OBJECT_NAME    = SL-16 R/B
OBJECT_ID      = 1985-097B
CENTER_NAME    = EARTH
REF_FRAME      = TEME
TIME_SYSTEM    = UTC
MEAN_ELEMENT_THEORY = SGP/SGP4

EPOCH          = 2025-11-13T06:17:41.348832
MEAN_MOTION    = 14.16576202
ECCENTRICITY   = .0005284
INCLINATION    = 71.0045
RA_OF_ASC_NODE = 25.6613
ARG_OF_PERICENTER = 66.7480
MEAN_ANOMALY   = 350.6365

EPHEMERIS_TYPE = 0
CLASSIFICATION_TYPE = U
NORAD_CAT_ID   = 16182
ELEMENT_SET_NO = 999
REV_AT_EPOCH   = 7074
BSTAR          = .43134702E-4
MEAN_MOTION_DOT = .38E-6
MEAN_MOTION_DDOT = 0

CCSDS_OMM_VERS = 2.0
CREATION_DATE  = 
ORIGINATOR     = 

OBJECT_NAME    = SL-14 R/B
OBJECT_ID      = 1986-006B
CENTER_NAME    = EARTH
REF_FRAME      = TEME
TIME_SYSTEM    = UTC
MEAN_ELEMENT_THEORY = SGP/SGP4

EPOCH          = 2025-11-13T05:15:41.015808
MEAN_MOTION    = 14.86612840
ECCENTRICITY   = .00754232
INCLINATION    = 82.5289
RA_OF_ASC_NODE = 9.3265
ARG_OF_PERICENTER = 299.3739
MEAN_ANOMALY   = 59.9960

EPHEMERIS_TYPE = 0
CLASSIFICATION_TYPE = U
NORAD_CAT_ID   = 16496
ELEMENT_SET_NO = 999
REV_AT_EPOCH   = 13190
BSTAR          = .15396938E-3
MEAN_MOTION_DOT = .1463E-4
MEAN_MOTION_DDOT = 0

